[{"OBJECT_NAME":"YAOGAN-30 06A","OBJECT_ID":"2019-045A","EPOCH":"2026-03-09T19:51:27.981216","MEAN_MOTION":15.02102304,"ECCENTRICITY":0.00031894,"INCLINATION":34.9928,"RA_OF_ASC_NODE":215.4318,"ARG_OF_PERICENTER":139.0512,"MEAN_ANOMALY":221.0436,"EPHEMERIS_TYPE":0,"CLASSIFICATION_TYPE":"U","NORAD_CAT_ID":44449,"ELEMENT_SET_NO":999,"REV_AT_EPOCH":36166,"BSTAR":0.00032896599,"MEAN_MOTION_DOT":4.384e-5,"MEAN_MOTION_DDOT":0},{"OBJECT_NAME":"MINOTAUR 4 DEB","OBJECT_ID":"2020-046AB","EPOCH":"2026-03-09T21:53:22.840224","MEAN_MOTION":15.04149387,"ECCENTRICITY":0.00103054,"INCLINATION":53.9803,"RA_OF_ASC_NODE":316.6393,"ARG_OF_PERICENTER":80.1776,"MEAN_ANOMALY":280.0387,"EPHEMERIS_TYPE":0,"CLASSIFICATION_TYPE":"U","NORAD_CAT_ID":52037,"ELEMENT_SET_NO":999,"REV_AT_EPOCH":22693,"BSTAR":0.00012711185,"MEAN_MOTION_DOT":1.507e-5,"MEAN_MOTION_DDOT":0}]
